NORAD_CAT_ID,OBJECT_NAME,OBJECT_TYPE,EPOCH,MEAN_MOTION,ECCENTRICITY,INCLINATION,RA_OF_ASC_NODE,ARG_OF_PERICENTER,MEAN_ANOMALY,BSTAR,MEAN_MOTION_DOT,MEAN_MOTION_DDOT,TLE_LINE0,TLE_LINE1,TLE_LINE2,SEMIMAJOR_AXIS,PERIOD,APOGEE,PERIGEE,DECAYED
52489.0,STARLINK-3923,PAYLOAD,2022-09-15 16:08:30,15.08850907,0.000161,53.2215,4.9343,46.5254,313.5872,8.1025e-05,1.002e-05,0.0,0 STARLINK-3923,1 52489U 22049AQ  22258.67257182  .00001002  00000-0  81025-4 0  9995,2 52489  53.2215   4.9343 0001610  46.5254 313.5872 15.08850907 20379,6917.847,95.437,540.826,538.5980000000002,0.0
52489.0,STARLINK-3923,PAYLOAD,2022-09-16 00:05:26,15.08834327,0.0001621,53.2213,3.4486,57.1019,303.0129,5.8535e-05,6.44e-06,0.0,0 STARLINK-3923,1 52489U 22049AQ  22259.00378425  .00000644  00000-0  58535-4 0  9998,2 52489  53.2213   3.4486 0001621  57.1019 303.0129 15.08834327 20588,6917.898,95.438,540.884,538.641,0.0
52489.0,STARLINK-3923,PAYLOAD,2022-09-16 11:13:08,15.08837163,0.0001625,53.221,1.3655,51.9375,308.1763,0.00020908,3.041e-05,0.0,0 STARLINK-3923,1 52489U 22049AQ  22259.46746073  .00003041  00000-0  20908-3 0  9992,2 52489  53.2210   1.3655 0001625  51.9375 308.1763 15.08837163 20492,6917.889,95.438,540.878,538.63,0.0
52489.0,STARLINK-3923,PAYLOAD,2022-09-16 15:59:18,15.08835355,0.0001855999999999,53.2214,0.4746,33.601,326.5099,0.00020588,2.99e-05,0.0,0 STARLINK-3923,1 52489U 22049AQ  22259.66618449  .00002990  00000-0  20588-3 0  9995,2 52489  53.2214   0.4746 0001856  33.6010 326.5099 15.08835355 20527,6917.895,95.438,541.044,538.476,0.0
52489.0,STARLINK-3923,PAYLOAD,2022-09-16 23:56:15,15.08818388,0.0001725,53.221,358.9864,48.9722,311.1419,1.3385e-05,-7.5e-07,0.0,0 STARLINK-3923,1 52489U 22049AQ  22259.99740203 -.00000075  00000-0  13385-4 0  9996,2 52489  53.2210 358.9864 0001725  48.9722 311.1419 15.08818388 20735,6917.946,95.439,541.005,538.618,0.0
52489.0,STARLINK-3923,PAYLOAD,2022-09-17 12:39:20,15.08831864,0.0001725,53.2209,356.6086,50.8215,309.293,-8.9044e-05,-1.705e-05,0.0,0 STARLINK-3923,1 52489U 22049AQ  22260.52731976 -.00001705  00000-0 -89044-4 0  9991,2 52489  53.2209 356.6086 0001725  50.8215 309.2930 15.08831864 20654,6917.905,95.438,540.964,538.577,0.0
52489.0,STARLINK-3923,PAYLOAD,2022-09-17 15:50:06,15.08833636,0.0001748,53.2209,356.0138,50.3362,309.7784,-7.2899e-05,-1.448e-05,0.0,0 STARLINK-3923,1 52489U 22049AQ  22260.65979880 -.00001448  00000-0 -72899-4 0  9997,2 52489  53.2209 356.0138 0001748  50.3362 309.7784 15.08833636 20672,6917.9,95.438,540.974,538.556,0.0
52489.0,STARLINK-3923,PAYLOAD,2022-09-18 12:30:06,15.08844497,0.0001684,53.2209,352.1483,50.1215,309.9925,7.6907e-05,9.36e-06,0.0,0 STARLINK-3923,1 52489U 22049AQ  22261.52090984  .00000936  00000-0  76907-4 0  9996,2 52489  53.2209 352.1483 0001684  50.1215 309.9925 15.08844497 20807,6917.8669999999975,95.437,540.8969999999998,538.567,0.0
52489.0,STARLINK-3923,PAYLOAD,2022-09-18 15:40:52,15.08841977,0.0001716,53.221,351.5537,50.738,309.3764,0.00016146,2.283e-05,0.0,0 STARLINK-3923,1 52489U 22049AQ  22261.65338916  .00002283  00000-0  16146-3 0  9995,2 52489  53.2210 351.5537 0001716  50.7380 309.3764 15.08841977 20824,6917.874,95.437,540.9259999999998,538.552,0.0
52489.0,STARLINK-3923,PAYLOAD,2022-09-19 12:20:53,15.08838974,0.0001766999999999,53.221,347.6886,50.2144,309.9004,0.00019257,2.778e-05,0.0,0 STARLINK-3923,1 52489U 22049AQ  22262.51451160  .00002778  00000-0  19257-3 0  9993,2 52489  53.2210 347.6886 0001767  50.2144 309.9004 15.08838974 21115,6917.884,95.438,540.971,538.526,0.0
52489.0,STARLINK-3923,PAYLOAD,2022-09-19 15:31:40,15.08841746,0.0001779,53.221,347.094,49.7922,310.3225,0.0001604,2.266e-05,0.0,0 STARLINK-3923,1 52489U 22049AQ  22262.64699094  .00002266  00000-0  16040-3 0  9996,2 52489  53.2210 347.0940 0001779  49.7922 310.3225 15.08841746 20975,6917.875,95.437,540.971,538.509,0.0
52489.0,STARLINK-3923,PAYLOAD,2022-09-20 05:50:08,15.08839884,0.0001712,53.2212,344.4173,51.0615,309.053,2.8357e-06,-2.43e-06,0.0,0 STARLINK-3923,1 52489U 22049AQ  22263.24315720 -.00000243  00000-0  28357-5 0  9994,2 52489  53.2212 344.4173 0001712  51.0615 309.0530 15.08839884 21063,6917.880999999999,95.438,540.93,538.561,0.0
52489.0,STARLINK-3923,PAYLOAD,2022-09-20 16:57:49,15.08851518,0.0001879,53.2209,342.3363,50.5795,309.5363,6.8065e-05,7.96e-06,0.0,0 STARLINK-3923,1 52489U 22049AQ  22263.70682646  .00000796  00000-0  68065-4 0  9990,2 52489  53.2209 342.3363 0001879  50.5795 309.5363 15.08851518 21139,6917.845,95.437,541.01,538.41,0.0
52489.0,STARLINK-3923,PAYLOAD,2022-09-21 12:02:28,15.08836618,0.0001885999999999,53.2208,338.7676,52.3537,307.7627,-3.1576e-05,-7.91e-06,0.0,0 STARLINK-3923,1 52489U 22049AQ  22264.50171509 -.00000791  00000-0 -31576-4 0  9994,2 52489  53.2208 338.7676 0001886  52.3537 307.7627 15.08836618 21414,6917.891,95.438,541.06,538.451,0.0
52489.0,STARLINK-3923,PAYLOAD,2022-09-21 21:34:46,15.08840476,0.0001761999999999,53.221,336.9844,48.9318,311.1826,-3.0949e-05,-7.81e-06,0.0,0 STARLINK-3923,1 52489U 22049AQ  22264.89915293 -.00000781  00000-0 -30949-4 0  9994,2 52489  53.2210 336.9844 0001762  48.9318 311.1826 15.08840476 21311,6917.879,95.438,540.9630000000002,538.525,0.0
52489.0,STARLINK-3923,PAYLOAD,2022-09-22 07:07:05,15.08846215,0.0001639,53.221,335.2004,44.82100000000001,315.2915,-8.9824e-07,-3.02e-06,0.0,0 STARLINK-3923,1 52489U 22049AQ  22265.29659002 -.00000302  00000-0 -89824-6 0  9999,2 52489  53.2210 335.2004 0001639  44.8210 315.2915 15.08846215 21377,6917.861,95.437,540.86,538.5930000000002,0.0
52489.0,STARLINK-3923,PAYLOAD,2022-09-22 13:28:37,15.08849439,0.0001657,53.221,334.011,44.2751,315.8373,2.8426e-05,1.64e-06,0.0,0 STARLINK-3923,1 52489U 22049AQ  22265.56154597  .00000164  00000-0  28426-4 0  9991,2 52489  53.2210 334.0110 0001657  44.2751 315.8373 15.08849439 21416,6917.852,95.437,540.863,538.57,0.0
52489.0,STARLINK-3923,PAYLOAD,2022-09-23 11:44:02,15.08835447,0.0002029,53.2211,329.8457,19.2371,340.8698,9.7609e-05,1.265e-05,0.0,0 STARLINK-3923,1 52489U 22049AQ  22266.48891398  .00001265  00000-0  97609-4 0  9992,2 52489  53.2211 329.8457 0002029  19.2371 340.8698 15.08835447 21712,6917.894,95.438,541.163,538.356,0.0
52489.0,STARLINK-3923,PAYLOAD,2022-09-23 16:30:11,15.08839651,0.0001801,53.2211,328.9547,33.8517,326.259,0.00012349,1.678e-05,0.0,0 STARLINK-3923,1 52489U 22049AQ  22266.68763165  .00001678  00000-0  12349-3 0  9999,2 52489  53.2211 328.9547 0001801  33.8517 326.2590 15.08839651 21588,6917.880999999999,95.438,540.992,538.501,0.0
52489.0,STARLINK-3923,PAYLOAD,2022-09-24 11:34:48,15.08883504,0.0001723,53.2194,325.3912,53.9282,306.187,-0.00049183,-8.117e-05,0.0,0 STARLINK-3923,1 52489U 22049AQ  22267.48250030 -.00008117  00000-0 -49183-3 0  9993,2 52489  53.2194 325.3912 0001723  53.9282 306.1870 15.08883504 21865,6917.746999999999,95.435,540.804,538.42,0.0
52489.0,STARLINK-3923,PAYLOAD,2022-09-24 16:20:57,15.08861272,0.0001629999999999,53.2203,324.4949,51.8314,308.2825,-0.00016218,-2.87e-05,0.0,0 STARLINK-3923,1 52489U 22049AQ  22267.68122316 -.00002870  00000-0 -16218-3 0  9993,2 52489  53.2203 324.4949 0001630  51.8314 308.2825 15.08861272 21890,6917.815,95.436,540.808,538.553,0.0
52489.0,STARLINK-3923,PAYLOAD,2022-09-25 11:25:36,15.08842427,0.0001699,53.2199,320.9255,47.1084,313.005,1.3281e-05,-7.7e-07,0.0,0 STARLINK-3923,1 52489U 22049AQ  22268.47611244 -.00000077  00000-0  13281-4 0  9998,2 52489  53.2199 320.9255 0001699  47.1084 313.0050 15.08842427 21853,6917.873000000001,95.437,540.913,538.563,0.0
52489.0,STARLINK-3923,PAYLOAD,2022-09-25 20:57:54,15.0885381,0.0001795,53.2204,319.1424,47.2232,312.8911,-2.8062e-05,-7.35e-06,0.0,0 STARLINK-3923,1 52489U 22049AQ  22268.87354474 -.00000735  00000-0 -28062-4 0  9996,2 52489  53.2204 319.1424 0001795  47.2232 312.8911 15.08853810 21919,6917.8380000000025,95.437,540.945,538.461,0.0
52489.0,STARLINK-3923,PAYLOAD,2022-09-26 12:51:46,15.08833965,0.000179,53.2204,316.1695,48.7024,311.4122,-2.9499e-05,-7.57e-06,0.0,0 STARLINK-3923,1 52489U 22049AQ  22269.53595759 -.00000757  00000-0 -29499-4 0  9992,2 52489  53.2204 316.1695 0001790  48.7024 311.4122 15.08833965 22016,6917.899,95.438,541.002,538.526,0.0
52489.0,STARLINK-3923,PAYLOAD,2022-09-26 20:48:42,15.08833253,0.0001857,53.2205,314.6843,46.762,313.3527,-1.1819000000000003e-05,-4.76e-06,0.0,0 STARLINK-3923,1 52489U 22049AQ  22269.86715908 -.00000476  00000-0 -11819-4 0  9993,2 52489  53.2205 314.6843 0001857  46.7620 313.3527 15.08833253 22064,6917.901,95.438,541.0509999999998,538.481,0.0
52489.0,STARLINK-3923,PAYLOAD,2022-09-27 09:31:49,15.08822324,0.0002215,53.2203,312.3064,44.2868,315.8301,-0.00010335,-1.932e-05,0.0,0 STARLINK-3923,1 52489U 22049AQ  22270.39709765 -.00001932  00000-0 -10335-3 0  9996,2 52489  53.2203 312.3064 0002215  44.2868 315.8301 15.08822324 22309,6917.934,95.439,541.332,538.2669999999998,0.0
52489.0,STARLINK-3923,PAYLOAD,2022-09-27 14:17:57,15.08833367,0.0001699999999999,53.2208,311.4147,56.6069,303.5086,-1.2705999999999997e-05,-4.9000000000000005e-06,0.0,0 STARLINK-3923,1 52489U 22049AQ  22270.59580820 -.00000490  00000-0 -12706-4 0  9990,2 52489  53.2208 311.4147 0001700  56.6069 303.5086 15.08833367 22330,6917.901,95.438,540.942,538.59,0.0
52489.0,STARLINK-3923,PAYLOAD,2022-09-28 12:33:21,15.08854625,0.0002077,53.219,307.2502,44.6661,315.4498,0.00064278,9.961e-05,0.0,0 STARLINK-3923,1 52489U 22049AQ  22271.52316727  .00009961  00000-0  64278-3 0  9997,2 52489  53.2190 307.2502 0002077  44.6661 315.4498 15.08854625 22475,6917.8359999999975,95.437,541.138,538.264,0.0
52489.0,STARLINK-3923,PAYLOAD,2022-09-29 02:51:49,15.08855155,0.0002181,53.219,304.5736,44.3686,315.7481,0.00021851,3.193e-05,0.0,0 STARLINK-3923,1 52489U 22049AQ  22272.11932337  .00003193  00000-0  21851-3 0  9995,2 52489  53.2190 304.5736 0002181  44.3686 315.7481 15.08855155 22568,6917.834,95.437,541.2080000000002,538.19,0.0
